{"type": "FeatureCollection", "features": [ {"type": "Feature", "properties": {"norad_id": 65304, "name": "DRAGON CRS-33", "group": "stations", "lat": -51.516495312023224, "lon": 3.3553647429722715, "alt_km": 419.99191845470796, "timestamp": "2025-12-23T14:49:08.002259+00:00", "meta": {"OBJECT_NAME": "DRAGON CRS-33", "OBJECT_ID": "2025-186A", "EPOCH": "2025-12-23T04:21:36.091008", "MEAN_MOTION": 15.49746572, "ECCENTRICITY": 0.00031904, "INCLINATION": 51.6323, "RA_OF_ASC_NODE": 90.7678, "ARG_OF_PERICENTER": 289.6661, "MEAN_ANOMALY": 70.3984, "EPHEMERIS_TYPE": 0, "CLASSIFICATION_TYPE": "U", "NORAD_CAT_ID": 65304, "ELEMENT_SET_NO": 999, "REV_AT_EPOCH": 11, "BSTAR": 0.00021350548, "MEAN_MOTION_DOT": 0.00011641, "MEAN_MOTION_DDOT": 0}, "tle": {"line1": "1 65304U 25186A   25357.18166772  .00011641  00000+0  21351-3 0  9997", "line2": "2 65304  51.6323  90.7678 0003190 289.6661  70.3984 15.49746572   111"}}, "geometry": {"type": "Point", "coordinates": [3.3553647429722715, -51.516495312023224]}}, {"type": "Feature", "properties": {"norad_id": 65586, "name": "PROGRESS-MS 32", "group": "stations", "lat": -51.51649527016201, "lon": 3.3553657772613774, "alt_km": 419.9919184459295, "timestamp": "2025-12-23T14:49:08.002269+00:00", "meta": {"OBJECT_NAME": "PROGRESS-MS 32", "OBJECT_ID": "2025-204A", "EPOCH": "2025-12-23T04:21:36.091008", "MEAN_MOTION": 15.49746572, "ECCENTRICITY": 0.00031904, "INCLINATION": 51.6323, "RA_OF_ASC_NODE": 90.7678, "ARG_OF_PERICENTER": 289.6661, "MEAN_ANOMALY": 70.3984, "EPHEMERIS_TYPE": 0, "CLASSIFICATION_TYPE": "U", "NORAD_CAT_ID": 65586, "ELEMENT_SET_NO": 999, "REV_AT_EPOCH": 27, "BSTAR": 0.00021350548, "MEAN_MOTION_DOT": 0.00011641, "MEAN_MOTION_DDOT": 0}, "tle": {"line1": "1 65586U 25204A   25357.18166772  .00011641  00000+0  21351-3 0  9990", "line2": "2 65586  51.6323  90.7678 0003190 289.6661  70.3984 15.49746572   270"}}, "geometry": {"type": "Point", "coordinates": [3.3553657772613774, -51.51649527016201]}}, {"type": "Feature", "properties": {"norad_id": 65616, "name": "CYGNUS NG-23", "group": "stations", "lat": -51.516495224114635, "lon": 3.355366914980441, "alt_km": 419.9919184362707, "timestamp": "2025-12-23T14:49:08.002280+00:00", "meta": {"OBJECT_NAME": "CYGNUS NG-23", "OBJECT_ID": "2025-208A", "EPOCH": "2025-12-23T04:21:36.091008", "MEAN_MOTION": 15.49746572, "ECCENTRICITY": 0.00031904, "INCLINATION": 51.6323, "RA_OF_ASC_NODE": 90.7678, "ARG_OF_PERICENTER": 289.6661, "MEAN_ANOMALY": 70.3984, "EPHEMERIS_TYPE": 0, "CLASSIFICATION_TYPE": "U", "NORAD_CAT_ID": 65616, "ELEMENT_SET_NO": 999, "REV_AT_EPOCH": 22, "BSTAR": 0.00021350548, "MEAN_MOTION_DOT": 0.00011641, "MEAN_MOTION_DDOT": 0}, "tle": {"line1": "1 65616U 25208A   25357.18166772  .00011641  00000+0  21351-3 0  9998", "line2": "2 65616  51.6323  90.7678 0003190 289.6661  70.3984 15.49746572   229"}}, "geometry": {"type": "Point", "coordinates": [3.355366914980441, -51.516495224114635]}}, {"type": "Feature", "properties": {"norad_id": 65729, "name": "DRAGONFLY", "group": "stations", "lat": 44.83125564755109, "lon": -152.07227228709982, "alt_km": 340.45746626469645, "timestamp": "2025-12-23T14:49:08.002291+00:00", "meta": {"OBJECT_NAME": "DRAGONFLY", "OBJECT_ID": "1998-067XH", "EPOCH": "2025-12-22T15:29:37.121856", "MEAN_MOTION": 15.75220895, "ECCENTRICITY": 0.00077856, "INCLINATION": 51.6244, "RA_OF_ASC_NODE": 84.9151, "ARG_OF_PERICENTER": 337.8608, "MEAN_ANOMALY": 22.2054, "EPHEMERIS_TYPE": 0, "CLASSIFICATION_TYPE": "U", "NORAD_CAT_ID": 65729, "ELEMENT_SET_NO": 999, "REV_AT_EPOCH": 1472, "BSTAR": 0.0012171562, "MEAN_MOTION_DOT": 0.0019065, "MEAN_MOTION_DDOT": 0}, "tle": {"line1": "1 65729U 98067XH  25356.64556854  .00190650  00000+0  12172-2 0  9998", "line2": "2 65729  51.6244  84.9151 0007785 337.8608  22.2054 15.75220895 14726"}}, "geometry": {"type": "Point", "coordinates": [-152.07227228709982, 44.83125564755109]}}, {"type": "Feature", "properties": {"norad_id": 65731, "name": "1998-067XK", "group": "stations", "lat": -34.69648855990483, "lon": -64.77064375071558, "alt_km": 368.99262474564966, "timestamp": "2025-12-23T14:49:08.002302+00:00", "meta": {"OBJECT_NAME": "1998-067XK", "OBJECT_ID": "1998-067XK", "EPOCH": "2025-12-23T06:12:26.032896", "MEAN_MOTION": 15.67713225, "ECCENTRICITY": 0.00049619, "INCLINATION": 51.6292, "RA_OF_ASC_NODE": 83.7873, "ARG_OF_PERICENTER": 312.0823, "MEAN_ANOMALY": 47.9751, "EPHEMERIS_TYPE": 0, "CLASSIFICATION_TYPE": "U", "NORAD_CAT_ID": 65731, "ELEMENT_SET_NO": 999, "REV_AT_EPOCH": 1479, "BSTAR": 0.00091991075, "MEAN_MOTION_DOT": 0.00103596, "MEAN_MOTION_DDOT": 0}, "tle": {"line1": "1 65731U 98067XK  25357.25863464  .00103596  00000+0  91991-3 0  9997", "line2": "2 65731  51.6292  83.7873 0004961 312.0823  47.9751 15.67713225 14797"}}, "geometry": {"type": "Point", "coordinates": [-64.77064375071558, -34.69648855990483]}}, {"type": "Feature", "properties": {"norad_id": 65732, "name": "RSP-03", "group": "stations", "lat": -26.549860939174724, "lon": 57.66494332659741, "alt_km": 354.4278581464314, "timestamp": "2025-12-23T14:49:08.002315+00:00", "meta": {"OBJECT_NAME": "RSP-03", "OBJECT_ID": "1998-067XL", "EPOCH": "2025-12-23T05:48:29.033280", "MEAN_MOTION": 15.71259199, "ECCENTRICITY": 0.0005983, "INCLINATION": 51.6261, "RA_OF_ASC_NODE": 82.9119, "ARG_OF_PERICENTER": 318.7681, "MEAN_ANOMALY": 41.2865, "EPHEMERIS_TYPE": 0, "CLASSIFICATION_TYPE": "U", "NORAD_CAT_ID": 65732, "ELEMENT_SET_NO": 999, "REV_AT_EPOCH": 1481, "BSTAR": 0.001084272, "MEAN_MOTION_DOT": 0.00142295, "MEAN_MOTION_DDOT": 0}, "tle": {"line1": "1 65732U 98067XL  25357.24200270  .00142295  00000+0  10843-2 0  9992", "line2": "2 65732  51.6261  82.9119 0005983 318.7681  41.2865 15.71259199 14814"}}, "geometry": {"type": "Point", "coordinates": [57.66494332659741, -26.549860939174724]}}, {"type": "Feature", "properties": {"norad_id": 65733, "name": "GHS-01", "group": "stations", "lat": 11.28432800675117, "lon": -110.02742281366318, "alt_km": 336.457632228261, "timestamp": "2025-12-23T14:49:08.002329+00:00", "meta": {"OBJECT_NAME": "GHS-01", "OBJECT_ID": "1998-067XM", "EPOCH": "2025-12-22T16:51:43.023456", "MEAN_MOTION": 15.79178849, "ECCENTRICITY": 0.00088219, "INCLINATION": 51.6291, "RA_OF_ASC_NODE": 83.8081, "ARG_OF_PERICENTER": 342.1592, "MEAN_ANOMALY": 17.9098, "EPHEMERIS_TYPE": 0, "CLASSIFICATION_TYPE": "U", "NORAD_CAT_ID": 65733, "ELEMENT_SET_NO": 999, "REV_AT_EPOCH": 1475, "BSTAR": 0.0013662085, "MEAN_MOTION_DOT": 0.00257457, "MEAN_MOTION_DDOT": 0}, "tle": {"line1": "1 65733U 98067XM  25356.70258129  .00257457  00000+0  13662-2 0  9998", "line2": "2 65733  51.6291  83.8081 0008821 342.1592  17.9098 15.79178849 14753"}}, "geometry": {"type": "Point", "coordinates": [-110.02742281366318, 11.28432800675117]}}, {"type": "Feature", "properties": {"norad_id": 65941, "name": "YOTSUBA-KULOVER", "group": "stations", "lat": 51.59885985986362, "lon": 173.70512269677582, "alt_km": 378.304760808991, "timestamp": "2025-12-23T14:49:08.002341+00:00", "meta": {"OBJECT_NAME": "YOTSUBA-KULOVER", "OBJECT_ID": "1998-067XN", "EPOCH": "2025-12-23T06:45:22.876128", "MEAN_MOTION": 15.6082914, "ECCENTRICITY": 0.00022338, "INCLINATION": 51.6291, "RA_OF_ASC_NODE": 86.9403, "ARG_OF_PERICENTER": 346.8625, "MEAN_ANOMALY": 13.231, "EPHEMERIS_TYPE": 0, "CLASSIFICATION_TYPE": "U", "NORAD_CAT_ID": 65941, "ELEMENT_SET_NO": 999, "REV_AT_EPOCH": 1150, "BSTAR": 0.00082116057, "MEAN_MOTION_DOT": 0.00069963, "MEAN_MOTION_DDOT": 0}, "tle": {"line1": "1 65941U 98067XN  25357.28151477  .00069963  00000+0  82116-3 0  9995", "line2": "2 65941  51.6291  86.9403 0002233 346.8625  13.2310 15.60829140 11508"}}, "geometry": {"type": "Point", "coordinates": [173.70512269677582, 51.59885985986362]}}, {"type": "Feature", "properties": {"norad_id": 65942, "name": "BOTAN", "group": "stations", "lat": -21.392883791610995, "lon": -77.66760398470045, "alt_km": 376.999039190252, "timestamp": "2025-12-23T14:49:08.002352+00:00", "meta": {"OBJECT_NAME": "BOTAN", "OBJECT_ID": "1998-067XP", "EPOCH": "2025-12-23T06:16:22.684224", "MEAN_MOTION": 15.65035738, "ECCENTRICITY": 0.00032278, "INCLINATION": 51.6284, "RA_OF_ASC_NODE": 86.0542, "ARG_OF_PERICENTER": 325.6529, "MEAN_ANOMALY": 34.4257, "EPHEMERIS_TYPE": 0, "CLASSIFICATION_TYPE": "U", "NORAD_CAT_ID": 65942, "ELEMENT_SET_NO": 999, "REV_AT_EPOCH": 1151, "BSTAR": 0.0011276843, "MEAN_MOTION_DOT": 0.001142, "MEAN_MOTION_DDOT": 0}, "tle": {"line1": "1 65942U 98067XP  25357.26137366  .00114200  00000+0  11277-2 0  9999", "line2": "2 65942  51.6284  86.0542 0003227 325.6529  34.4257 15.65035738 11511"}}, "geometry": {"type": "Point", "coordinates": [-77.66760398470045, -21.392883791610995]}}, {"type": "Feature", "properties": {"norad_id": 65943, "name": "E-KAGAKU-1", "group": "stations", "lat": 51.58466758472658, "lon": 172.72763012220116, "alt_km": 378.74228592075815, "timestamp": "2025-12-23T14:49:08.002363+00:00", "meta": {"OBJECT_NAME": "E-KAGAKU-1", "OBJECT_ID": "1998-067XQ", "EPOCH": "2025-12-22T10:46:55.533504", "MEAN_MOTION": 15.60710313, "ECCENTRICITY": 0.00012968, "INCLINATION": 51.6319, "RA_OF_ASC_NODE": 91.1385, "ARG_OF_PERICENTER": 295.9007, "MEAN_ANOMALY": 64.1852, "EPHEMERIS_TYPE": 0, "CLASSIFICATION_TYPE": "U", "NORAD_CAT_ID": 65943, "ELEMENT_SET_NO": 999, "REV_AT_EPOCH": 1137, "BSTAR": 0.00086344374, "MEAN_MOTION_DOT": 0.00073283, "MEAN_MOTION_DDOT": 0}, "tle": {"line1": "1 65943U 98067XQ  25356.44925386  .00073283  00000+0  86344-3 0  9999", "line2": "2 65943  51.6319  91.1385 0001296 295.9007  64.1852 15.60710313 11376"}}, "geometry": {"type": "Point", "coordinates": [172.72763012220116, 51.58466758472658]}}]}